{
    "links": {
        "self": "http://www.neowsapp.com/rest/v1/neo/3395983?api_key=iIulBulltgU6a56xZRHN4H3l9WmuAYTsLGpBGhQ2"
    },
    "id": "3395983",
    "neo_reference_id": "3395983",
    "name": "(2007 WT4)",
    "designation": "2007 WT4",
    "nasa_jpl_url": "http://ssd.jpl.nasa.gov/sbdb.cgi?sstr=3395983",
    "absolute_magnitude_h": 22.5,
    "estimated_diameter": {
        "kilometers": {
            "estimated_diameter_min": 0.0840533402,
            "estimated_diameter_max": 0.1879489824
        },
        "meters": {
            "estimated_diameter_min": 84.0533402073,
            "estimated_diameter_max": 187.9489824394
        },
        "miles": {
            "estimated_diameter_min": 0.0522283081,
            "estimated_diameter_max": 0.1167860472
        },
        "feet": {
            "estimated_diameter_min": 275.7655606856,
            "estimated_diameter_max": 616.6305395464
        }
    },
    "is_potentially_hazardous_asteroid": false,
    "close_approach_data": [
        {
            "close_approach_date": "2007-11-27",
            "close_approach_date_full": "2007-Nov-27 00:14",
            "epoch_date_close_approach": 1196122440000,
            "relative_velocity": {
                "kilometers_per_second": "3.7684963249",
                "kilometers_per_hour": "13566.5867695235",
                "miles_per_hour": "8429.7494290964"
            },
            "miss_distance": {
                "astronomical": "0.3110221047",
                "lunar": "120.9875987283",
                "kilometers": "46528244.386036989",
                "miles": "28911310.4262048882"
            },
            "orbiting_body": "Earth"
        }
    ],
    "orbital_data": {
        "orbit_id": "10",
        "orbit_determination_date": "2017-04-06 09:05:02",
        "first_observation_date": "2007-11-19",
        "last_observation_date": "2007-12-16",
        "data_arc_in_days": 27,
        "observations_used": 28,
        "orbit_uncertainty": "6",
        "minimum_orbit_intersection": ".316427",
        "jupiter_tisserand_invariant": "3.504",
        "epoch_osculation": "2459000.5",
        "eccentricity": ".4205295243850171",
        "semi_major_axis": "2.241214496068015",
        "inclination": "7.007692872910511",
        "ascending_node_longitude": "228.558121094538",
        "orbital_period": "1225.528911228533",
        "perihelion_distance": "1.298717629991727",
        "perihelion_argument": "201.8685927873915",
        "aphelion_distance": "3.183711362144303",
        "perihelion_time": "2459335.298586275358",
        "mean_anomaly": "261.6526742414376",
        "mean_motion": ".2937507199557761",
        "equinox": "J2000",
        "orbit_class": {
            "orbit_class_type": "AMO",
            "orbit_class_description": "Near-Earth asteroid orbits similar to that of 1221 Amor",
            "orbit_class_range": "1.017 AU < q (perihelion) < 1.3 AU"
        }
    },
    "is_sentry_object": false
}